{
  "type": "FeatureCollection",
  "features": [
    {
      "type": "Feature",
      "properties": {
        "name": "TST–Jordan bounded engineering pilot",
        "bbox": [
          114.164,
          22.295,
          114.181,
          22.312
        ]
      },
      "geometry": {
        "type": "Polygon",
        "coordinates": [
          [
            [
              114.164,
              22.295
            ],
            [
              114.181,
              22.295
            ],
            [
              114.181,
              22.312
            ],
            [
              114.164,
              22.312
            ],
            [
              114.164,
              22.295
            ]
          ]
        ]
      }
    }
  ]
}
