{"type":"FeatureCollection","features":[{"type":"Feature","properties":{"kind":"source_block_group","source_geoid":"15000US250250101031"},"geometry":{"coordinates":[[[-71.106854,42.348759],[-71.106702,42.349433],[-71.1051,42.349263],[-71.10499,42.349727],[-71.104963,42.349907],[-71.099482,42.349221],[-71.097168,42.348982],[-71.097343,42.348801],[-71.09826,42.348574],[-71.098836,42.348401],[-71.099488,42.348231],[-71.101143,42.347758],[-71.101593,42.347817],[-71.103314,42.348093],[-71.10468,42.348336],[-71.106854,42.348759]]],"type":"Polygon"}},{"type":"Feature","properties":{"kind":"clipped_model_zone","zone_id":"h3r9:892a30644a3ffff"},"geometry":{"type":"Polygon","coordinates":[[[-71.09789066131832,42.34843006279169],[-71.09793136302176,42.34663777865762],[-71.10015903890874,42.34573957308315],[-71.10234610775741,42.346633585257514],[-71.10230557714645,42.34842587651225],[-71.10007780659362,42.34932414847487],[-71.09789066131832,42.34843006279169]]]}},{"type":"Feature","properties":{"kind":"clipped_model_zone","zone_id":"h3r9:892a30644abffff"},"geometry":{"type":"Polygon","coordinates":[[[-71.10449282148141,42.349319881055344],[-71.10230557714645,42.34842587651225],[-71.10234610775741,42.346633585257514],[-71.10457371160899,42.345735291436334],[-71.105,42.345909522425906],[-71.105,42.34911535202903],[-71.10449282148141,42.349319881055344]]]}},{"type":"Feature","properties":{"kind":"clipped_model_zone","zone_id":"h3r9:892a30644b3ffff"},"geometry":{"type":"Polygon","coordinates":[[[-71.0956220267412,42.35112058226279],[-71.09566281873576,42.349328246493975],[-71.09789066131832,42.34843006279169],[-71.10007780659362,42.34932414847487],[-71.10003718571015,42.351116491372125],[-71.09780924843955,42.35201474146069],[-71.0956220267412,42.35112058226279]]]}},{"type":"Feature","properties":{"kind":"clipped_model_zone","zone_id":"h3r9:892a30644bbffff"},"geometry":{"type":"Polygon","coordinates":[[[-71.10003718571015,42.351116491372125],[-71.10007780659362,42.34932414847487],[-71.10230557714645,42.34842587651225],[-71.10449282148141,42.349319881055344],[-71.1044523717116,42.35111223106698],[-71.10222450649242,42.352010569424074],[-71.10003718571015,42.351116491372125]]]}}]}
